[{"CCSDS_OMM_VERS":"2.0","COMMENT":"GENERATED VIA SPACE-TRACK.ORG API","CREATION_DATE":"2018-05-13T07:23:19","ORIGINATOR":"18 SPCS","OBJECT_NAME":"UPSAT","OBJECT_ID":"1998-067LX","CENTER_NAME":"EARTH","REF_FRAME":"TEME","TIME_SYSTEM":"UTC","MEAN_ELEMENT_THEORY":"SGP4","EPOCH":"2018-05-13T03:30:37.794528","MEAN_MOTION":"15.73157249","ECCENTRICITY":"0.00033750","INCLINATION":"51.6335","RA_OF_ASC_NODE":"170.7000","ARG_OF_PERICENTER":"59.8383","MEAN_ANOMALY":"300.2949","EPHEMERIS_TYPE":"0","CLASSIFICATION_TYPE":"U","NORAD_CAT_ID":"42716","ELEMENT_SET_NO":"999","REV_AT_EPOCH":"5625","BSTAR":"0.00027976000000","MEAN_MOTION_DOT":"0.00038825","MEAN_MOTION_DDOT":"0.0000000000000","SEMIMAJOR_AXIS":"6728.017","PERIOD":"91.535","APOAPSIS":"352.152","PERIAPSIS":"347.611","OBJECT_TYPE":"PAYLOAD","RCS_SIZE":"SMALL","COUNTRY_CODE":"GREC","LAUNCH_DATE":"1998-11-20","SITE":"TTMTR","DECAY_DATE":null,"FILE":"2284434","GP_ID":"120167012","TLE_LINE0":"0 UPSAT","TLE_LINE1":"1 42716U 98067LX  18133.14627077  .00038825  00000-0  27976-3 0  9990","TLE_LINE2":"2 42716  51.6335 170.7000 0003375  59.8383 300.2949 15.73157249 56253"},{"CCSDS_OMM_VERS":"2.0","COMMENT":"GENERATED VIA SPACE-TRACK.ORG API","CREATION_DATE":"2018-05-13T21:57:26","ORIGINATOR":"18 SPCS","OBJECT_NAME":"UPSAT","OBJECT_ID":"1998-067LX","CENTER_NAME":"EARTH","REF_FRAME":"TEME","TIME_SYSTEM":"UTC","MEAN_ELEMENT_THEORY":"SGP4","EPOCH":"2018-05-13T12:39:28.049472","MEAN_MOTION":"15.73190124","ECCENTRICITY":"0.00034310","INCLINATION":"51.6334","RA_OF_ASC_NODE":"168.7450","ARG_OF_PERICENTER":"61.3162","MEAN_ANOMALY":"298.8181","EPHEMERIS_TYPE":"0","CLASSIFICATION_TYPE":"U","NORAD_CAT_ID":"42716","ELEMENT_SET_NO":"999","REV_AT_EPOCH":"5631","BSTAR":"0.00028526000000","MEAN_MOTION_DOT":"0.00039661","MEAN_MOTION_DDOT":"0.0000000000000","SEMIMAJOR_AXIS":"6727.923","PERIOD":"91.533","APOAPSIS":"352.096","PERIAPSIS":"347.479","OBJECT_TYPE":"PAYLOAD","RCS_SIZE":"SMALL","COUNTRY_CODE":"GREC","LAUNCH_DATE":"1998-11-20","SITE":"TTMTR","DECAY_DATE":null,"FILE":"2284635","GP_ID":"120181539","TLE_LINE0":"0 UPSAT","TLE_LINE1":"1 42716U 98067LX  18133.52740798 +.00039661 +00000-0 +28526-3 0  9999","TLE_LINE2":"2 42716 051.6334 168.7450 0003431 061.3162 298.8181 15.73190124056310"},{"CCSDS_OMM_VERS":"2.0","COMMENT":"GENERATED VIA SPACE-TRACK.ORG API","CREATION_DATE":"2018-05-14T05:25:43","ORIGINATOR":"18 SPCS","OBJECT_NAME":"UPSAT","OBJECT_ID":"1998-067LX","CENTER_NAME":"EARTH","REF_FRAME":"TEME","TIME_SYSTEM":"UTC","MEAN_ELEMENT_THEORY":"SGP4","EPOCH":"2018-05-13T17:13:52.888800","MEAN_MOTION":"15.73208545","ECCENTRICITY":"0.00034240","INCLINATION":"51.6333","RA_OF_ASC_NODE":"167.7676","ARG_OF_PERICENTER":"62.1952","MEAN_ANOMALY":"297.9394","EPHEMERIS_TYPE":"0","CLASSIFICATION_TYPE":"U","NORAD_CAT_ID":"42716","ELEMENT_SET_NO":"999","REV_AT_EPOCH":"5634","BSTAR":"0.00029584000000","MEAN_MOTION_DOT":"0.00041196","MEAN_MOTION_DDOT":"0.0000000000000","SEMIMAJOR_AXIS":"6727.870","PERIOD":"91.532","APOAPSIS":"352.039","PERIAPSIS":"347.432","OBJECT_TYPE":"PAYLOAD","RCS_SIZE":"SMALL","COUNTRY_CODE":"GREC","LAUNCH_DATE":"1998-11-20","SITE":"TTMTR","DECAY_DATE":null,"FILE":"2284756","GP_ID":"120192209","TLE_LINE0":"0 UPSAT","TLE_LINE1":"1 42716U 98067LX  18133.71797325 +.00041196 +00000-0 +29584-3 0  9999","TLE_LINE2":"2 42716 051.6333 167.7676 0003424 062.1952 297.9394 15.73208545056342"},{"CCSDS_OMM_VERS":"2.0","COMMENT":"GENERATED VIA SPACE-TRACK.ORG API","CREATION_DATE":"2018-05-15T05:27:04","ORIGINATOR":"18 SPCS","OBJECT_NAME":"UPSAT","OBJECT_ID":"1998-067LX","CENTER_NAME":"EARTH","REF_FRAME":"TEME","TIME_SYSTEM":"UTC","MEAN_ELEMENT_THEORY":"SGP4","EPOCH":"2018-05-14T08:28:34.498848","MEAN_MOTION":"15.73263013","ECCENTRICITY":"0.00033860","INCLINATION":"51.6329","RA_OF_ASC_NODE":"164.5090","ARG_OF_PERICENTER":"63.9086","MEAN_ANOMALY":"296.2261","EPHEMERIS_TYPE":"0","CLASSIFICATION_TYPE":"U","NORAD_CAT_ID":"42716","ELEMENT_SET_NO":"999","REV_AT_EPOCH":"5644","BSTAR":"0.00029707000000","MEAN_MOTION_DOT":"0.00041469","MEAN_MOTION_DDOT":"0.0000000000000","SEMIMAJOR_AXIS":"6727.715","PERIOD":"91.529","APOAPSIS":"351.858","PERIAPSIS":"347.302","OBJECT_TYPE":"PAYLOAD","RCS_SIZE":"SMALL","COUNTRY_CODE":"GREC","LAUNCH_DATE":"1998-11-20","SITE":"TTMTR","DECAY_DATE":null,"FILE":"2285122","GP_ID":"120211003","TLE_LINE0":"0 UPSAT","TLE_LINE1":"1 42716U 98067LX  18134.35317707 +.00041469 +00000-0 +29707-3 0  9992","TLE_LINE2":"2 42716 051.6329 164.5090 0003386 063.9086 296.2261 15.73263013056443"},{"CCSDS_OMM_VERS":"2.0","COMMENT":"GENERATED VIA SPACE-TRACK.ORG API","CREATION_DATE":"2018-05-15T22:32:09","ORIGINATOR":"18 SPCS","OBJECT_NAME":"UPSAT","OBJECT_ID":"1998-067LX","CENTER_NAME":"EARTH","REF_FRAME":"TEME","TIME_SYSTEM":"UTC","MEAN_ELEMENT_THEORY":"SGP4","EPOCH":"2018-05-15T10:23:29.215392","MEAN_MOTION":"15.73343761","ECCENTRICITY":"0.00033700","INCLINATION":"51.6326","RA_OF_ASC_NODE":"158.9691","ARG_OF_PERICENTER":"67.8339","MEAN_ANOMALY":"292.3017","EPHEMERIS_TYPE":"0","CLASSIFICATION_TYPE":"U","NORAD_CAT_ID":"42716","ELEMENT_SET_NO":"999","REV_AT_EPOCH":"5661","BSTAR":"0.00025434000000","MEAN_MOTION_DOT":"0.00035512","MEAN_MOTION_DDOT":"0.0000000000000","SEMIMAJOR_AXIS":"6727.485","PERIOD":"91.524","APOAPSIS":"351.617","PERIAPSIS":"347.083","OBJECT_TYPE":"PAYLOAD","RCS_SIZE":"SMALL","COUNTRY_CODE":"GREC","LAUNCH_DATE":"1998-11-20","SITE":"TTMTR","DECAY_DATE":null,"FILE":"2285396","GP_ID":"120228070","TLE_LINE0":"0 UPSAT","TLE_LINE1":"1 42716U 98067LX  18135.43297703 +.00035512 +00000-0 +25434-3 0  9990","TLE_LINE2":"2 42716 051.6326 158.9691 0003370 067.8339 292.3017 15.73343761056615"},{"CCSDS_OMM_VERS":"2.0","COMMENT":"GENERATED VIA SPACE-TRACK.ORG API","CREATION_DATE":"2018-05-16T05:32:37","ORIGINATOR":"18 SPCS","OBJECT_NAME":"UPSAT","OBJECT_ID":"1998-067LX","CENTER_NAME":"EARTH","REF_FRAME":"TEME","TIME_SYSTEM":"UTC","MEAN_ELEMENT_THEORY":"SGP4","EPOCH":"2018-05-15T21:03:43.333632","MEAN_MOTION":"15.73374270","ECCENTRICITY":"0.00033460","INCLINATION":"51.6324","RA_OF_ASC_NODE":"156.6877","ARG_OF_PERICENTER":"70.7133","MEAN_ANOMALY":"289.4227","EPHEMERIS_TYPE":"0","CLASSIFICATION_TYPE":"U","NORAD_CAT_ID":"42716","ELEMENT_SET_NO":"999","REV_AT_EPOCH":"5668","BSTAR":"0.00024007000000","MEAN_MOTION_DOT":"0.00033521","MEAN_MOTION_DDOT":"0.0000000000000","SEMIMAJOR_AXIS":"6727.398","PERIOD":"91.523","APOAPSIS":"351.514","PERIAPSIS":"347.012","OBJECT_TYPE":"PAYLOAD","RCS_SIZE":"SMALL","COUNTRY_CODE":"GREC","LAUNCH_DATE":"1998-11-20","SITE":"TTMTR","DECAY_DATE":null,"FILE":"2285469","GP_ID":"120237556","TLE_LINE0":"0 UPSAT","TLE_LINE1":"1 42716U 98067LX  18135.87758488 +.00033521 +00000-0 +24007-3 0  9993","TLE_LINE2":"2 42716 051.6324 156.6877 0003346 070.7133 289.4227 15.73374270056688"},{"CCSDS_OMM_VERS":"2.0","COMMENT":"GENERATED VIA SPACE-TRACK.ORG API","CREATION_DATE":"2018-05-16T22:09:16","ORIGINATOR":"18 SPCS","OBJECT_NAME":"UPSAT","OBJECT_ID":"1998-067LX","CENTER_NAME":"EARTH","REF_FRAME":"TEME","TIME_SYSTEM":"UTC","MEAN_ELEMENT_THEORY":"SGP4","EPOCH":"2018-05-16T13:49:46.843968","MEAN_MOTION":"15.73423132","ECCENTRICITY":"0.00033560","INCLINATION":"51.6324","RA_OF_ASC_NODE":"153.1030","ARG_OF_PERICENTER":"71.4899","MEAN_ANOMALY":"288.6464","EPHEMERIS_TYPE":"0","CLASSIFICATION_TYPE":"U","NORAD_CAT_ID":"42716","ELEMENT_SET_NO":"999","REV_AT_EPOCH":"5679","BSTAR":"0.00022857000000","MEAN_MOTION_DOT":"0.00031947","MEAN_MOTION_DDOT":"0.0000000000000","SEMIMAJOR_AXIS":"6727.259","PERIOD":"91.520","APOAPSIS":"351.381","PERIAPSIS":"346.866","OBJECT_TYPE":"PAYLOAD","RCS_SIZE":"SMALL","COUNTRY_CODE":"GREC","LAUNCH_DATE":"1998-11-20","SITE":"TTMTR","DECAY_DATE":null,"FILE":"2285774","GP_ID":"120253903","TLE_LINE0":"0 UPSAT","TLE_LINE1":"1 42716U 98067LX  18136.57623662 +.00031947 +00000-0 +22857-3 0  9997","TLE_LINE2":"2 42716 051.6324 153.1030 0003356 071.4899 288.6464 15.73423132056797"},{"CCSDS_OMM_VERS":"2.0","COMMENT":"GENERATED VIA SPACE-TRACK.ORG API","CREATION_DATE":"2018-05-17T06:05:10","ORIGINATOR":"18 SPCS","OBJECT_NAME":"UPSAT","OBJECT_ID":"1998-067LX","CENTER_NAME":"EARTH","REF_FRAME":"TEME","TIME_SYSTEM":"UTC","MEAN_ELEMENT_THEORY":"SGP4","EPOCH":"2018-05-16T13:49:46.843968","MEAN_MOTION":"15.73423132","ECCENTRICITY":"0.00033560","INCLINATION":"51.6324","RA_OF_ASC_NODE":"153.1030","ARG_OF_PERICENTER":"71.4899","MEAN_ANOMALY":"288.6464","EPHEMERIS_TYPE":"0","CLASSIFICATION_TYPE":"U","NORAD_CAT_ID":"42716","ELEMENT_SET_NO":"999","REV_AT_EPOCH":"5679","BSTAR":"0.00022857000000","MEAN_MOTION_DOT":"0.00031947","MEAN_MOTION_DDOT":"0.0000000000000","SEMIMAJOR_AXIS":"6727.259","PERIOD":"91.520","APOAPSIS":"351.381","PERIAPSIS":"346.866","OBJECT_TYPE":"PAYLOAD","RCS_SIZE":"SMALL","COUNTRY_CODE":"GREC","LAUNCH_DATE":"1998-11-20","SITE":"TTMTR","DECAY_DATE":null,"FILE":"2285870","GP_ID":"120261406","TLE_LINE0":"0 UPSAT","TLE_LINE1":"1 42716U 98067LX  18136.57623662 +.00031947 +00000-0 +22857-3 0  9997","TLE_LINE2":"2 42716 051.6324 153.1030 0003356 071.4899 288.6464 15.73423132056797"}]